ACS3                    
1 59588U 24077B   24138.15560970  .00000128  00000+0  18502-3 0  9995
2 59588  97.4068 213.5421 0020475 175.6519 184.4814 13.67678860  3163
